{"type": "FeatureCollection", "features": [ {"type": "Feature", "properties": {"norad_id": 35023, "name": "COSMOS 2251 DEB", "group": "cosmos-2251-debris", "lat": 5.914485594617221, "lon": -173.85690967294383, "alt_km": 588.9873399556072, "timestamp": "2025-12-26T16:33:55.966216+00:00", "meta": {"OBJECT_NAME": "COSMOS 2251 DEB", "OBJECT_ID": "1993-036AGL", "EPOCH": "2025-12-25T17:01:33.868992", "MEAN_MOTION": 14.95489352, "ECCENTRICITY": 0.00335104, "INCLINATION": 74.0368, "RA_OF_ASC_NODE": 186.4223, "ARG_OF_PERICENTER": 262.485, "MEAN_ANOMALY": 225.1411, "EPHEMERIS_TYPE": 0, "CLASSIFICATION_TYPE": "U", "NORAD_CAT_ID": 35023, "ELEMENT_SET_NO": 999, "REV_AT_EPOCH": 88473, "BSTAR": 0.0015881361, "MEAN_MOTION_DOT": 0.00017791, "MEAN_MOTION_DDOT": 0}, "tle": {"line1": "1 35023U 93036AGL 25359.70941978  .00017791  00000+0  15881-2 0  9992", "line2": "2 35023  74.0368 186.4223 0033510 262.4850 225.1411 14.95489352884734"}}, "geometry": {"type": "Point", "coordinates": [-173.85690967294383, 5.914485594617221]}}, {"type": "Feature", "properties": {"norad_id": 35025, "name": "COSMOS 2251 DEB", "group": "cosmos-2251-debris", "lat": 28.36577394145712, "lon": 44.544565934601835, "alt_km": 644.0510794907505, "timestamp": "2025-12-26T16:33:55.966225+00:00", "meta": {"OBJECT_NAME": "COSMOS 2251 DEB", "OBJECT_ID": "1993-036AGN", "EPOCH": "2025-12-25T12:43:05.392128", "MEAN_MOTION": 14.7277334, "ECCENTRICITY": 0.0085734, "INCLINATION": 73.9378, "RA_OF_ASC_NODE": 37.8677, "ARG_OF_PERICENTER": 308.0127, "MEAN_ANOMALY": 51.3326, "EPHEMERIS_TYPE": 0, "CLASSIFICATION_TYPE": "U", "NORAD_CAT_ID": 35025, "ELEMENT_SET_NO": 999, "REV_AT_EPOCH": 88831, "BSTAR": 0.00045426, "MEAN_MOTION_DOT": 3.041e-05, "MEAN_MOTION_DDOT": 0}, "tle": {"line1": "1 35025U 93036AGN 25359.52992352  .00003041  00000+0  45426-3 0  9998", "line2": "2 35025  73.9378  37.8677 0085734 308.0127  51.3326 14.72773340888316"}}, "geometry": {"type": "Point", "coordinates": [44.544565934601835, 28.36577394145712]}}, {"type": "Feature", "properties": {"norad_id": 35026, "name": "COSMOS 2251 DEB", "group": "cosmos-2251-debris", "lat": 18.355065819666365, "lon": -62.086137870654056, "alt_km": 659.6795312587956, "timestamp": "2025-12-26T16:33:55.966234+00:00", "meta": {"OBJECT_NAME": "COSMOS 2251 DEB", "OBJECT_ID": "1993-036AGP", "EPOCH": "2025-12-25T02:35:01.847328", "MEAN_MOTION": 14.53631376, "ECCENTRICITY": 0.00826322, "INCLINATION": 74.0477, "RA_OF_ASC_NODE": 295.4544, "ARG_OF_PERICENTER": 45.4243, "MEAN_ANOMALY": 335.8431, "EPHEMERIS_TYPE": 0, "CLASSIFICATION_TYPE": "U", "NORAD_CAT_ID": 35026, "ELEMENT_SET_NO": 999, "REV_AT_EPOCH": 88323, "BSTAR": 8.4826771e-05, "MEAN_MOTION_DOT": 3.41e-06, "MEAN_MOTION_DDOT": 0}, "tle": {"line1": "1 35026U 93036AGP 25359.10766027  .00000341  00000+0  84827-4 0  9990", "line2": "2 35026  74.0477 295.4544 0082632  45.4243 335.8431 14.53631376883233"}}, "geometry": {"type": "Point", "coordinates": [-62.086137870654056, 18.355065819666365]}}, {"type": "Feature", "properties": {"norad_id": 35028, "name": "COSMOS 2251 DEB", "group": "cosmos-2251-debris", "lat": -71.64633995122948, "lon": -175.11154222541293, "alt_km": 716.1606375223282, "timestamp": "2025-12-26T16:33:55.966243+00:00", "meta": {"OBJECT_NAME": "COSMOS 2251 DEB", "OBJECT_ID": "1993-036AGR", "EPOCH": "2025-12-21T04:06:01.501344", "MEAN_MOTION": 14.56577596, "ECCENTRICITY": 0.00828284, "INCLINATION": 74.0382, "RA_OF_ASC_NODE": 254.9813, "ARG_OF_PERICENTER": 26.387, "MEAN_ANOMALY": 123.709, "EPHEMERIS_TYPE": 0, "CLASSIFICATION_TYPE": "U", "NORAD_CAT_ID": 35028, "ELEMENT_SET_NO": 999, "REV_AT_EPOCH": 88408, "BSTAR": 7.219211e-05, "MEAN_MOTION_DOT": 3.06e-06, "MEAN_MOTION_DDOT": 0}, "tle": {"line1": "1 35028U 93036AGR 25355.17085071  .00000306  00000+0  72192-4 0  9991", "line2": "2 35028  74.0382 254.9813 0082828  26.3870 123.7090 14.56577596884085"}}, "geometry": {"type": "Point", "coordinates": [-175.11154222541293, -71.64633995122948]}}, {"type": "Feature", "properties": {"norad_id": 35031, "name": "COSMOS 2251 DEB", "group": "cosmos-2251-debris", "lat": -5.289822812535938, "lon": -127.95599954413781, "alt_km": 755.4308738936752, "timestamp": "2025-12-26T16:33:55.966252+00:00", "meta": {"OBJECT_NAME": "COSMOS 2251 DEB", "OBJECT_ID": "1993-036AGU", "EPOCH": "2025-12-24T22:51:30.580992", "MEAN_MOTION": 14.38306061, "ECCENTRICITY": 0.0019335, "INCLINATION": 74.0374, "RA_OF_ASC_NODE": 236.7632, "ARG_OF_PERICENTER": 328.0242, "MEAN_ANOMALY": 31.9737, "EPHEMERIS_TYPE": 0, "CLASSIFICATION_TYPE": "U", "NORAD_CAT_ID": 35031, "ELEMENT_SET_NO": 999, "REV_AT_EPOCH": 65459, "BSTAR": 0.00014948, "MEAN_MOTION_DOT": 4.29e-06, "MEAN_MOTION_DDOT": 0}, "tle": {"line1": "1 35031U 93036AGU 25358.95243728  .00000429  00000+0  14948-3 0  9999", "line2": "2 35031  74.0374 236.7632 0019335 328.0242  31.9737 14.38306061654591"}}, "geometry": {"type": "Point", "coordinates": [-127.95599954413781, -5.289822812535938]}}, {"type": "Feature", "properties": {"norad_id": 35032, "name": "COSMOS 2251 DEB", "group": "cosmos-2251-debris", "lat": 11.97004971906018, "lon": 156.88489934933074, "alt_km": 653.5408116820199, "timestamp": "2025-12-26T16:33:55.966261+00:00", "meta": {"OBJECT_NAME": "COSMOS 2251 DEB", "OBJECT_ID": "1993-036AGV", "EPOCH": "2025-12-25T15:40:10.153056", "MEAN_MOTION": 14.58820143, "ECCENTRICITY": 0.0067432, "INCLINATION": 73.8523, "RA_OF_ASC_NODE": 342.4037, "ARG_OF_PERICENTER": 191.3693, "MEAN_ANOMALY": 290.6947, "EPHEMERIS_TYPE": 0, "CLASSIFICATION_TYPE": "U", "NORAD_CAT_ID": 35032, "ELEMENT_SET_NO": 999, "REV_AT_EPOCH": 87862, "BSTAR": 0.00083306, "MEAN_MOTION_DOT": 3.991e-05, "MEAN_MOTION_DDOT": 0}, "tle": {"line1": "1 35032U 93036AGV 25359.65289529  .00003991  00000+0  83306-3 0  9998", "line2": "2 35032  73.8523 342.4037 0067432 191.3693 290.6947 14.58820143878624"}}, "geometry": {"type": "Point", "coordinates": [156.88489934933074, 11.97004971906018]}}, {"type": "Feature", "properties": {"norad_id": 35033, "name": "COSMOS 2251 DEB", "group": "cosmos-2251-debris", "lat": 20.484578970015516, "lon": -35.81414005562779, "alt_km": 723.1878677278874, "timestamp": "2025-12-26T16:33:55.966270+00:00", "meta": {"OBJECT_NAME": "COSMOS 2251 DEB", "OBJECT_ID": "1993-036AGW", "EPOCH": "2025-12-19T05:07:27.625152", "MEAN_MOTION": 14.50959586, "ECCENTRICITY": 0.001448, "INCLINATION": 74.0251, "RA_OF_ASC_NODE": 164.3945, "ARG_OF_PERICENTER": 270.8601, "MEAN_ANOMALY": 89.0901, "EPHEMERIS_TYPE": 0, "CLASSIFICATION_TYPE": "U", "NORAD_CAT_ID": 35033, "ELEMENT_SET_NO": 999, "REV_AT_EPOCH": 66021, "BSTAR": 0.00048139, "MEAN_MOTION_DOT": 1.877e-05, "MEAN_MOTION_DDOT": 0}, "tle": {"line1": "1 35033U 93036AGW 25353.21351418  .00001877  00000+0  48139-3 0  9998", "line2": "2 35033  74.0251 164.3945 0014480 270.8601  89.0901 14.50959586660212"}}, "geometry": {"type": "Point", "coordinates": [-35.81414005562779, 20.484578970015516]}}, {"type": "Feature", "properties": {"norad_id": 35038, "name": "COSMOS 2251 DEB", "group": "cosmos-2251-debris", "lat": -74.09654475384166, "lon": -73.27298931497921, "alt_km": 810.777053626688, "timestamp": "2025-12-26T16:33:55.966279+00:00", "meta": {"OBJECT_NAME": "COSMOS 2251 DEB", "OBJECT_ID": "1993-036AHB", "EPOCH": "2025-12-16T02:43:57.942048", "MEAN_MOTION": 14.25166694, "ECCENTRICITY": 0.01140711, "INCLINATION": 74.1077, "RA_OF_ASC_NODE": 36.5236, "ARG_OF_PERICENTER": 19.3791, "MEAN_ANOMALY": 9.3469, "EPHEMERIS_TYPE": 0, "CLASSIFICATION_TYPE": "U", "NORAD_CAT_ID": 35038, "ELEMENT_SET_NO": 999, "REV_AT_EPOCH": 85617, "BSTAR": 0.00096319549, "MEAN_MOTION_DOT": 2.397e-05, "MEAN_MOTION_DDOT": 0}, "tle": {"line1": "1 35038U 93036AHB 25350.11386507  .00002397  00000+0  96320-3 0  9999", "line2": "2 35038  74.1077  36.5236 0114071  19.3791   9.3469 14.25166694856178"}}, "geometry": {"type": "Point", "coordinates": [-73.27298931497921, -74.09654475384166]}}, {"type": "Feature", "properties": {"norad_id": 35043, "name": "COSMOS 2251 DEB", "group": "cosmos-2251-debris", "lat": -24.281635306242976, "lon": -154.4711809543834, "alt_km": 579.1310643357883, "timestamp": "2025-12-26T16:33:55.966288+00:00", "meta": {"OBJECT_NAME": "COSMOS 2251 DEB", "OBJECT_ID": "1993-036AHG", "EPOCH": "2025-12-25T10:23:08.748096", "MEAN_MOTION": 14.77569208, "ECCENTRICITY": 0.0095113, "INCLINATION": 73.9518, "RA_OF_ASC_NODE": 20.547, "ARG_OF_PERICENTER": 227.6564, "MEAN_ANOMALY": 131.6528, "EPHEMERIS_TYPE": 0, "CLASSIFICATION_TYPE": "U", "NORAD_CAT_ID": 35043, "ELEMENT_SET_NO": 999, "REV_AT_EPOCH": 67606, "BSTAR": 0.003393, "MEAN_MOTION_DOT": 0.00026195, "MEAN_MOTION_DDOT": 0}, "tle": {"line1": "1 35043U 93036AHG 25359.43274014  .00026195  00000+0  33930-2 0  9997", "line2": "2 35043  73.9518  20.5470 0095113 227.6564 131.6528 14.77569208676069"}}, "geometry": {"type": "Point", "coordinates": [-154.4711809543834, -24.281635306242976]}}, {"type": "Feature", "properties": {"norad_id": 35045, "name": "COSMOS 2251 DEB", "group": "cosmos-2251-debris", "lat": 44.567356575228594, "lon": -168.66412356432755, "alt_km": 981.8860540578899, "timestamp": "2025-12-26T16:33:55.966298+00:00", "meta": {"OBJECT_NAME": "COSMOS 2251 DEB", "OBJECT_ID": "1993-036AHJ", "EPOCH": "2025-12-24T19:20:26.125152", "MEAN_MOTION": 14.0041252, "ECCENTRICITY": 0.01839955, "INCLINATION": 73.7191, "RA_OF_ASC_NODE": 31.3925, "ARG_OF_PERICENTER": 271.7742, "MEAN_ANOMALY": 86.2325, "EPHEMERIS_TYPE": 0, "CLASSIFICATION_TYPE": "U", "NORAD_CAT_ID": 35045, "ELEMENT_SET_NO": 999, "REV_AT_EPOCH": 84812, "BSTAR": 0.0006276669, "MEAN_MOTION_DOT": 1.049e-05, "MEAN_MOTION_DDOT": 0}, "tle": {"line1": "1 35045U 93036AHJ 25358.80585793  .00001049  00000+0  62767-3 0  9990", "line2": "2 35045  73.7191  31.3925 0183995 271.7742  86.2325 14.00412520848123"}}, "geometry": {"type": "Point", "coordinates": [-168.66412356432755, 44.567356575228594]}}]}